COSMOS 2425 (716)       
1 29670U 06062A   21314.44425119 -.00000003  00000-0  00000-0 0  9993
2 29670  64.8088 250.5181 0024451 342.3784 214.8463  2.13114390115783
COSMOS 2433 (720)       
1 32275U 07052A   21314.54952172 -.00000079  00000-0  00000-0 0  9996
2 32275  66.0775  11.9375 0004602 231.9784 212.9199  2.13104264109303
COSMOS 2432 (719)       
1 32276U 07052B   21314.89674507 -.00000081  00000-0  00000-0 0  9991
2 32276  66.0900  12.0240 0009063 316.6292 343.5302  2.13103462109304
COSMOS 2434 (721)       
1 32393U 07065A   21314.90704984 -.00000011  00000-0  00000-0 0  9993
2 32393  64.4280 248.8939 0001076  76.8802 171.1098  2.13103113108016
COSMOS 2436 (723)       
1 32395U 07065C   21314.69961595 -.00000008  00000-0  00000-0 0  9990
2 32395  64.4369 248.9556 0015370 354.2730 230.5995  2.13102925107944
COSMOS 2456 (730)       
1 36111U 09070A   21314.83035361  .00000080  00000-0  00000-0 0  9996
2 36111  64.3016 128.5602 0001831 352.5406   5.2402  2.13099276 92672
COSMOS 2457 (733)       
1 36112U 09070B   21314.60611542  .00000078  00000-0  00000-0 0  9990
2 36112  64.2861 128.4497 0006785 147.7759 163.5314  2.13101504 92677
COSMOS 2459 (731)       
1 36400U 10007A   21314.08435200 -.00000077  00000-0  00000+0 0  9998
2 36400  65.9712  10.8569 0025262 346.4306 321.5846  2.13109900 91001
COSMOS 2461 (735)       
1 36401U 10007B   21314.21079464 -.00000078  00000-0  00000+0 0  9991
2 36401  65.9665  10.8165 0017988   4.2715  38.4524  2.13103680 91028
COSMOS 2460 (732)       
1 36402U 10007C   21314.15366876 -.00000077  00000-0  00000+0 0  9990
2 36402  65.9530  10.7743 0001935 206.7433  98.4514  2.13106552 91017
COSMOS 2464 (736)       
1 37139U 10041C   21314.63663175 -.00000008  00000-0  00000-0 0  9996
2 37139  64.0271 248.0872 0028226   7.1995 253.1726  2.13100823 87086
COSMOS 2471 (701K)      
1 37372U 11009A   21314.89734742 -.00000080  00000-0  00000-0 0  9997
2 37372  65.9472  10.6775 0017303 229.0130  52.4306  2.13062363 83304
COSMOS 2476 (744)       
1 37867U 11064A   21314.49731709  .00000078  00000-0  00000+0 0  9998
2 37867  64.5942 129.8426 0019462 230.7889 135.0823  2.13101911 78022
COSMOS 2477 (745)       
1 37868U 11064B   21314.49635813  .00000078  00000-0  00000+0 0  9998
2 37868  64.6034 129.9047 0016849 231.0939 312.3015  2.13101762 77972
COSMOS 2475 (743)       
1 37869U 11064C   21314.08426113  .00000074  00000-0  00000-0 0  9992
2 37869  64.6096 129.9246 0020244 253.1525 291.9460  2.13102011 77976
COSMOS 2485 (747)       
1 39155U 13019A   21314.43915778  .00000078  00000-0  00000-0 0  9997
2 39155  64.7599 130.2248 0020144 226.4133 139.3094  2.13101984 66490
COSMOS 2492 (754)       
1 39620U 14012A   21314.76597491 -.00000080  00000-0  00000-0 0  9996
2 39620  65.8408  10.4657 0012221 314.5188 336.5697  2.13103306 59444
COSMOS 2500 (755)       
1 40001U 14032A   21314.66215935 -.00000079  00000-0  00000-0 0  9990
2 40001  65.7814  10.3450 0008374 204.9651 225.7253  2.13102399 57660
COSMOS 2501 (702K)      
1 40315U 14075A   21314.63028726 -.00000008  00000-0  00000-0 0  9994
2 40315  63.7377 248.8394 0017877 212.5354   0.6850  2.13101325 54060
COSMOS 2514 (751)       
1 41330U 16008A   21314.70082302 -.00000080  00000-0  00000-0 0  9998
2 41330  65.5820  10.0907 0012070 212.8298  70.9395  2.13102832 44821
COSMOS 2516 (753)       
1 41554U 16032A   21314.77523854 -.00000010  00000-0  00000-0 0  9995
2 41554  63.9632 249.0484 0014336 221.8244  17.5361  2.13107144 42430
COSMOS 2522 (752)       
1 42939U 17055A   21314.43643888 -.00000005  00000-0  00000-0 0  9996
2 42939  64.1964 249.3914 0008892 249.8527 309.8372  2.13102130 32184
COSMOS 2527 (756)       
1 43508U 18053A   21313.26573899  .00000070  00000-0  00000-0 0  9993
2 43508  64.9232 130.2193 0006839 212.3006 201.3896  2.13102597 26453
COSMOS 2529 (757)       
1 43687U 18086A   21314.46155897 -.00000004  00000-0  00000+0 0  9991
2 43687  64.4115 249.6480 0011144 270.0725 264.4342  2.13102139 23493
COSMOS 2534 (758)       
1 44299U 19030A   21314.84192359 -.00000010  00000-0  00000-0 0  9995
2 44299  64.4823 249.4992 0013889 287.9936 313.0479  2.13101912 19141
COSMOS 2544 (759)       
1 44850U 19088A   21314.29159545  .00000077  00000-0  00000+0 0  9991
2 44850  64.9081 130.0418 0009849 253.2538 271.0641  2.13101940 14902
COSMOS 2545 (760)       
1 45358U 20018A   21314.62892391 -.00000081  00000-0  00000-0 0  9997
2 45358  64.9180  10.8809 0010638 241.4015  31.5231  2.13102763 12863
